COSMOS 2433 (720)       
1 32275U 07052A   25356.00528436 -.00000042  00000+0  00000+0 0  9997
2 32275  65.6781 321.8942 0005170 255.8460 104.0915  2.13104226141283
COSMOS 2432 (719)       
1 32276U 07052B   25357.25499588 -.00000036  00000+0  00000+0 0  9994
2 32276  65.6934 321.9768 0011359 314.4802 228.6315  2.13103423141330
COSMOS 2434 (721)       
1 32393U 07065A   25356.35176799  .00000095  00000+0  00000+0 0  9998
2 32393  64.3157 197.8788 0004813  72.4714  83.8697  2.13101487140000
COSMOS 2436 (723)       
1 32395U 07065C   25357.16637500  .00000095  00000+0  00000+0 0  9992
2 32395  64.3245 197.9217 0017805  10.2027 184.1085  2.13100231139976
COSMOS 2456 (730)       
1 36111U 09070A   25357.34049639 -.00000001  00000+0  00000+0 0  9998
2 36111  64.9055  76.9756 0003610 295.3784  56.6202  2.13103774124670
COSMOS 2457 (733)       
1 36112U 09070B   25357.17057260 -.00000002  00000+0  00000+0 0  9990
2 36112  64.8910  76.8287 0004498 163.0286 187.6554  2.13101144124675
COSMOS 2460 (732)       
1 36402U 10007C   25356.52116690 -.00000039  00000+0  00000+0 0  9995
2 36402  65.5243 320.4432 0002502 283.7046 288.4145  2.13106370122964
COSMOS 2476 (744)       
1 37867U 11064A   25357.53604220  .00000001  00000+0  00000+0 0  9996
2 37867  65.1675  78.8064 0024550 235.5255 174.8280  2.13103692110020
COSMOS 2477 (745)       
1 37868U 11064B   25357.22218815  .00000000  00000+0  00000+0 0  9993
2 37868  65.1742  78.8944 0021545 235.4149 115.0574  2.13103036110008
COSMOS 2475 (743)       
1 37869U 11064C   25357.28399742  .00000001  00000+0  00000+0 0  9990
2 37869  65.1811  78.9126 0026681 249.1292 104.6561  2.13101654110011
COSMOS 2485 (747)       
1 39155U 13019A   25356.46870553 -.00000002  00000+0  00000+0 0  9997
2 39155  65.3184  79.5401 0024944 230.2875 129.5355  2.13103251 98519
COSMOS 2492 (754)       
1 39620U 14012A   25355.95803742 -.00000042  00000+0  00000+0 0  9991
2 39620  65.4026 319.9579 0014242 313.3292  46.5466  2.13103396 91463
COSMOS 2500 (755)       
1 40001U 14032A   25355.19160910 -.00000047  00000+0  00000+0 0  9992
2 40001  65.3386 319.7453 0007729 219.3736 140.5635  2.13106227 89663
COSMOS 2501 (702K)      
1 40315U 14075A   25353.10517885  .00000106  00000+0  00000+0 0  9998
2 40315  63.6146 196.6046 0020099 204.1838 155.7988  2.13101513 86014
COSMOS 2514 (751)       
1 41330U 16008A   25356.84326712 -.00000038  00000+0  00000+0 0  9990
2 41330  65.1279 319.0581 0011682 220.1101 139.8009  2.13102647 76868
COSMOS 2522 (752)       
1 42939U 17055A   25356.21234619  .00000095  00000+0  00000+0 0  9996
2 42939  64.0765 197.9063 0006299 223.6863 136.3303  2.13102066 64200
COSMOS 2527 (756)       
1 43508U 18053A   25357.11173016  .00000001  00000+0  00000+0 0  9998
2 43508  65.4775  79.7850 0008997 227.5336 132.4355  2.13102391 58528
COSMOS 2529 (757)       
1 43687U 18086A   25355.80131012  .00000096  00000+0  00000+0 0  9990
2 43687  64.2926 198.5821 0006911 253.6836 106.3102  2.13102139 55503
COSMOS 2534 (758)       
1 44299U 19030A   25357.27683741  .00000095  00000+0  00000+0 0  9993
2 44299  64.3662 198.5378 0008649 283.8843 262.5113  2.13102317 51175
COSMOS 2544 (759)       
1 44850U 19088A   25356.11777109 -.00000003  00000+0  00000+0 0  9993
2 44850  65.4645  79.6449 0014311 250.3028 109.5843  2.13102165 46946
COSMOS 2545 (760)       
1 45358U 20018A   25356.31348543 -.00000042  00000+0  00000+0 0  9993
2 45358  64.4640 318.6341 0011343 250.3607 109.5130  2.13102698 44898
COSMOS 2547 (705K)      
1 46805U 20075A   25356.97091267  .00000095  00000+0  00000+0 0  9991
2 46805  64.5968 198.3547 0006106 227.5279 132.4843  2.13100221 40154
COSMOS 2557 (706K)      
1 52984U 22075A   25357.13613343 -.00000039  00000+0  00000+0 0  9991
2 52984  64.4039 320.6862 0013538 278.4196  81.4250  2.13102050 26967
COSMOS 2559 (707K)      
1 54031U 22130A   25356.95533963 -.00000040  00000+0  00000+0 0  9998
2 54031  64.3764 320.7818 0011531 191.7827 168.1884  2.13101300 24935
COSMOS 2564 (761)       
1 54377U 22161A   25356.79948287  .00000095  00000+0  00000+0 0  9995
2 54377  64.7388 198.5646 0008547 203.7096 156.3160  2.13102038 23876
COSMOS 2569 (703K)      
1 57517U 23114A   25357.28208676  .00000000  00000+0  00000+0 0  9995
2 57517  65.1995  78.5573 0010892 287.0521  72.8760  2.13104025 18515
COSMOS 2584 (704K)      
1 63130U 25042A   25356.69946038 -.00000002  00000+0  00000+0 0  9993
2 63130  64.9812  78.8068 0007758 220.2667 139.7207  2.13103045  6288
COSMOS 2596 (708K)      
1 65590U 25206B   25357.14038080 -.00000038  00000+0  00000+0 0  9996
2 65590  64.7387 321.1139 0014092 307.3847 149.2418  2.13100363  2167
